{
  "links" : {
    "next" : "https://api.nasa.gov/neo/rest/v1/feed?start_date=2013-08-23&end_date=2013-08-23&detailed=true&api_key=t0TVs3DtDT2H8Oy2Zy8m2eVrNsAVKAexjcZXUckd",
    "prev" : "https://api.nasa.gov/neo/rest/v1/feed?start_date=2013-08-21&end_date=2013-08-21&detailed=true&api_key=t0TVs3DtDT2H8Oy2Zy8m2eVrNsAVKAexjcZXUckd",
    "self" : "https://api.nasa.gov/neo/rest/v1/feed?start_date=2013-08-22&end_date=2013-08-22&detailed=true&api_key=t0TVs3DtDT2H8Oy2Zy8m2eVrNsAVKAexjcZXUckd"
  },
  "element_count" : 6,
  "near_earth_objects" : {
    "2013-08-22" : [ {
      "links" : {
        "self" : "https://api.nasa.gov/neo/rest/v1/neo/3645651?api_key=t0TVs3DtDT2H8Oy2Zy8m2eVrNsAVKAexjcZXUckd"
      },
      "neo_reference_id" : "3645651",
      "name" : "(2013 PA39)",
      "nasa_jpl_url" : "http://ssd.jpl.nasa.gov/sbdb.cgi?sstr=3645651",
      "absolute_magnitude_h" : 26.0,
      "estimated_diameter" : {
        "kilometers" : {
          "estimated_diameter_min" : 0.0167708462,
          "estimated_diameter_max" : 0.0375007522
        },
        "meters" : {
          "estimated_diameter_min" : 16.7708462163,
          "estimated_diameter_max" : 37.5007521798
        },
        "miles" : {
          "estimated_diameter_min" : 0.0104209175,
          "estimated_diameter_max" : 0.0233018799
        },
        "feet" : {
          "estimated_diameter_min" : 55.0224631002,
          "estimated_diameter_max" : 123.0339677816
        }
      },
      "is_potentially_hazardous_asteroid" : false,
      "close_approach_data" : [ {
        "close_approach_date" : "2013-08-22",
        "epoch_date_close_approach" : 1377154800000,
        "relative_velocity" : {
          "kilometers_per_second" : "4.6604904143",
          "kilometers_per_hour" : "16777.7654916014",
          "miles_per_hour" : "10425.0510078231"
        },
        "miss_distance" : {
          "astronomical" : "0.0376353808",
          "lunar" : "14.6401634216",
          "kilometers" : "5630173",
          "miles" : "3498427.25"
        },
        "orbiting_body" : "Earth"
      } ],
      "orbital_data" : {
        "orbit_id" : "9",
        "orbit_determination_date" : "2017-04-06 08:45:07",
        "orbit_uncertainty" : "7",
        "minimum_orbit_intersection" : ".0359491",
        "jupiter_tisserand_invariant" : "5.496",
        "epoch_osculation" : "2458000.5",
        "eccentricity" : ".1104440634707686",
        "semi_major_axis" : "1.13744678514888",
        "inclination" : "7.737095219467647",
        "ascending_node_longitude" : "143.7234682726757",
        "orbital_period" : "443.0931725587012",
        "perihelion_distance" : "1.011822540215275",
        "perihelion_argument" : "232.5109207226548",
        "aphelion_distance" : "1.263071030082485",
        "perihelion_time" : "2457902.428529416552",
        "mean_anomaly" : "79.68014764516363",
        "mean_motion" : ".812470203323449",
        "equinox" : "J2000"
      }
    }, {
      "links" : {
        "self" : "https://api.nasa.gov/neo/rest/v1/neo/3682927?api_key=t0TVs3DtDT2H8Oy2Zy8m2eVrNsAVKAexjcZXUckd"
      },
      "neo_reference_id" : "3682927",
      "name" : "(2014 QZ265)",
      "nasa_jpl_url" : "http://ssd.jpl.nasa.gov/sbdb.cgi?sstr=3682927",
      "absolute_magnitude_h" : 25.3,
      "estimated_diameter" : {
        "kilometers" : {
          "estimated_diameter_min" : 0.0231502122,
          "estimated_diameter_max" : 0.0517654482
        },
        "meters" : {
          "estimated_diameter_min" : 23.150212221,
          "estimated_diameter_max" : 51.7654482198
        },
        "miles" : {
          "estimated_diameter_min" : 0.0143848705,
          "estimated_diameter_max" : 0.0321655483
        },
        "feet" : {
          "estimated_diameter_min" : 75.9521422633,
          "estimated_diameter_max" : 169.8341531374
        }
      },
      "is_potentially_hazardous_asteroid" : false,
      "close_approach_data" : [ {
        "close_approach_date" : "2013-08-22",
        "epoch_date_close_approach" : 1377154800000,
        "relative_velocity" : {
          "kilometers_per_second" : "13.1733464755",
          "kilometers_per_hour" : "47424.0473119289",
          "miles_per_hour" : "29467.458731126"
        },
        "miss_distance" : {
          "astronomical" : "0.3071508791",
          "lunar" : "119.4816894531",
          "kilometers" : "45949116",
          "miles" : "28551458"
        },
        "orbiting_body" : "Earth"
      } ],
      "orbital_data" : {
        "orbit_id" : "5",
        "orbit_determination_date" : "2017-04-06 08:39:12",
        "orbit_uncertainty" : "8",
        "minimum_orbit_intersection" : ".0256218",
        "jupiter_tisserand_invariant" : "6.156",
        "epoch_osculation" : "2456893.5",
        "eccentricity" : ".2529338938956187",
        "semi_major_axis" : ".9617730365131522",
        "inclination" : "26.27966121566153",
        "ascending_node_longitude" : "332.7116532779266",
        "orbital_period" : "344.5143553344024",
        "perihelion_distance" : ".7185080373440675",
        "perihelion_argument" : "122.058223966077",
        "aphelion_distance" : "1.205038035682237",
        "perihelion_time" : "2456985.511511568875",
        "mean_anomaly" : "263.8526445940312",
        "mean_motion" : "1.044949200013934",
        "equinox" : "J2000"
      }
    }, {
      "links" : {
        "self" : "https://api.nasa.gov/neo/rest/v1/neo/3770152?api_key=t0TVs3DtDT2H8Oy2Zy8m2eVrNsAVKAexjcZXUckd"
      },
      "neo_reference_id" : "3770152",
      "name" : "(2017 DF38)",
      "nasa_jpl_url" : "http://ssd.jpl.nasa.gov/sbdb.cgi?sstr=3770152",
      "absolute_magnitude_h" : 26.0,
      "estimated_diameter" : {
        "kilometers" : {
          "estimated_diameter_min" : 0.0167708462,
          "estimated_diameter_max" : 0.0375007522
        },
        "meters" : {
          "estimated_diameter_min" : 16.7708462163,
          "estimated_diameter_max" : 37.5007521798
        },
        "miles" : {
          "estimated_diameter_min" : 0.0104209175,
          "estimated_diameter_max" : 0.0233018799
        },
        "feet" : {
          "estimated_diameter_min" : 55.0224631002,
          "estimated_diameter_max" : 123.0339677816
        }
      },
      "is_potentially_hazardous_asteroid" : false,
      "close_approach_data" : [ {
        "close_approach_date" : "2013-08-22",
        "epoch_date_close_approach" : 1377154800000,
        "relative_velocity" : {
          "kilometers_per_second" : "11.2410730236",
          "kilometers_per_hour" : "40467.8628849618",
          "miles_per_hour" : "25145.156246492"
        },
        "miss_distance" : {
          "astronomical" : "0.2116630091",
          "lunar" : "82.3369064331",
          "kilometers" : "31664336",
          "miles" : "19675306"
        },
        "orbiting_body" : "Earth"
      } ],
      "orbital_data" : {
        "orbit_id" : "4",
        "orbit_determination_date" : "2017-04-06 08:19:52",
        "orbit_uncertainty" : "6",
        "minimum_orbit_intersection" : ".00671243",
        "jupiter_tisserand_invariant" : "5.995",
        "epoch_osculation" : "2458000.5",
        "eccentricity" : ".04678980539193726",
        "semi_major_axis" : "1.010245524374463",
        "inclination" : "16.51984231758255",
        "ascending_node_longitude" : "157.9982412472027",
        "orbital_period" : "370.8846245372824",
        "perihelion_distance" : ".9629763328909063",
        "perihelion_argument" : "263.3304900560152",
        "aphelion_distance" : "1.05751471585802",
        "perihelion_time" : "2458088.003417004185",
        "mean_anomaly" : "275.0646102927354",
        "mean_motion" : ".9706522626790957",
        "equinox" : "J2000"
      }
    } ]
  }
}